STARLINK-2506
1 18315C 21036AR  21326.18107838  .00005519  00000-0  36976-3 0  3261
2 18315  53.0546 292.9351 0002077  58.6569  13.6402 15.06397063    19
